OBJECT_NAME,OBJECT_ID,EPOCH,MEAN_MOTION,ECCENTRICITY,INCLINATION,RA_OF_ASC_NODE,ARG_OF_PERICENTER,MEAN_ANOMALY,EPHEMERIS_TYPE,CLASSIFICATION_TYPE,NORAD_CAT_ID,ELEMENT_SET_NO,REV_AT_EPOCH,BSTAR,MEAN_MOTION_DOT,MEAN_MOTION_DDOT
STARLINK-32438,2024-196R,2026-07-08T04:35:09.756960,15.34399134,.00012555,53.1591,261.0762,64.1738,295.9394,0,U,61722,999,9561,.14217069E-3,.443E-4,0
STARLINK-32540,2024-196S,2026-07-08T11:46:39.633600,15.34417323,.00025334,53.1583,223.3330,96.4046,263.7245,0,U,61723,999,9616,.15028381E-3,.4707E-4,0
STARLINK-32528,2024-196T,2026-07-08T11:53:50.717760,15.34397860,.00010249,53.1595,259.4288,100.8886,259.2232,0,U,61724,999,9446,-.95624103E-4,-.3605E-4,0
STARLINK-32573,2024-196U,2026-07-08T11:17:36.701952,15.34398006,.00013606,53.1594,259.9734,88.0680,272.0478,0,U,61725,999,9565,.22050125E-4,.369E-5,0
STARLINK-32478,2024-196V,2026-07-08T11:35:47.594400,15.34405059,.00007074,53.1570,260.0484,65.1091,294.9985,0,U,61726,999,9565,.1553456E-4,.149E-5,0
STARLINK-32511,2024-196W,2026-07-07T06:20:49.655040,15.34426534,.00014574,53.1589,265.2459,65.9827,294.1328,0,U,61727,999,9547,.69405639E-3,.23166E-3,0
STARLINK-32475,2024-196X,2026-07-08T04:32:07.950624,15.34408046,.00010889,53.1584,261.0566,89.7969,270.3158,0,U,61728,999,9561,.64610201E-4,.1808E-4,0
STARLINK-32442,2024-196Y,2026-07-07T04:56:07.473984,15.34402413,.00018581,53.1579,265.5848,104.1133,256.0077,0,U,61729,999,9546,.41014771E-3,.13507E-3,0
STARLINK-32362,2024-202A,2026-07-08T11:58:09.006240,15.27579995,.00022076,43.0026,264.4948,277.0807,82.9794,0,U,61845,999,9452,.39145924E-4,.815E-5,0
STARLINK-32472,2024-202B,2026-07-08T05:04:43.987008,15.27578948,.00023651,43.0092,266.6520,293.2783,66.7819,0,U,61846,999,9388,-.18218764E-4,-.764E-5,0
STARLINK-32352,2024-202C,2026-07-08T11:50:46.017024,15.27571188,.00015984,43.0021,264.4565,279.4293,80.6377,0,U,61847,999,9394,.1471476E-5,-.222E-5,0
STARLINK-32427,2024-202D,2026-07-08T05:56:19.862304,15.27565303,.00005099,43.0016,266.0491,225.3224,134.7586,0,U,61848,999,9389,-.53215377E-4,-.1725E-4,0
STARLINK-32346,2024-202E,2026-07-08T06:01:46.874208,15.27713287,.00108358,42.9747,266.0435,142.7082,217.4523,0,U,61849,999,9389,-.73739897E-4,-.2307E-4,0
STARLINK-32330,2024-202F,2026-07-08T17:34:02.514720,15.27581773,.00004537,42.9993,274.0486,224.5530,135.5285,0,U,61850,999,9385,.531741E-6,-.247E-5,0
STARLINK-32379,2024-202G,2026-07-08T16:27:39.820320,15.27592762,.00013268,43.0008,263.3181,261.0789,98.9913,0,U,61851,999,9396,.21674196E-4,.335E-5,0
STARLINK-32433,2024-202H,2026-07-08T12:57:06.648192,15.27581077,.00004469,43.0010,275.1888,189.2413,170.8430,0,U,61852,999,9382,.7610626E-5,-.52E-6,0
STARLINK-32394,2024-202J,2026-07-08T13:00:49.307904,15.27581008,.00008829,43.0028,275.2068,234.3668,125.7102,0,U,61853,999,9381,.86459534E-4,.2118E-4,0
STARLINK-32486,2024-202K,2026-07-08T13:06:17.077536,15.27615136,.00011532,42.9973,275.2280,167.1474,192.9408,0,U,61854,999,9382,.58150767E-3,.15791E-3,0
STARLINK-32391,2024-202L,2026-07-08T13:11:54.397824,15.27591616,.00013189,43.0004,275.2610,243.4865,116.5852,0,U,61855,999,9381,-.42241156E-4,-.1425E-4,0
STARLINK-32483,2024-202M,2026-07-08T07:00:51.745248,15.27550263,.00009436,43.0084,276.7737,232.3087,127.7680,0,U,61856,999,9378,.15115305E-3,.3896E-4,0
STARLINK-32451,2024-202N,2026-07-08T16:36:53.850816,15.27582471,.0002872,43.0072,274.6206,305.3776,54.6808,0,U,61857,999,9384,.45401182E-4,.987E-5,0
STARLINK-32556,2024-202P,2026-07-08T13:23:01.040352,15.27582144,.00018852,42.9974,275.3142,166.8307,193.2594,0,U,61858,999,9382,.77025285E-4,.1858E-4,0
STARLINK-32466,2024-202Q,2026-07-08T07:15:38.961792,15.27581719,.00020468,43.0046,276.8494,285.4209,74.6416,0,U,61859,999,9378,.38489509E-4,.797E-5,0
STARLINK-32316,2024-202R,2026-07-08T13:08:55.124736,15.27590492,.00008795,43.0012,271.7823,256.8714,103.2039,0,U,61860,999,9385,.14153744E-4,.128E-5,0
STARLINK-32415,2024-202S,2026-07-08T12:09:13.315104,15.27590049,.0001556,43.0017,275.7966,263.0806,96.9869,0,U,61861,999,9380,.80274149E-4,.1948E-4,0
STARLINK-32393,2024-202T,2026-07-08T07:21:11.940480,15.27607842,.00015886,43.0021,276.8753,250.4214,109.6466,0,U,61862,999,9378,-.97908342E-4,-.2958E-4,0
STARLINK-32324,2024-202U,2026-07-08T12:20:20.802624,15.27587599,.00016707,42.9993,275.8541,260.0273,100.0390,0,U,61863,999,9380,.46485103E-4,.1017E-4,0
STARLINK-32318,2024-202V,2026-07-08T17:12:02.733984,15.27569108,.00017935,43.0001,274.7957,274.9733,85.0914,0,U,61864,999,9384,-.34394671E-4,-.1208E-4,0
STARLINK-32401,2024-202W,2026-07-08T12:35:07.256256,15.27584598,.00014759,42.9986,275.9273,265.9749,94.0934,0,U,61865,999,9381,.53392991E-4,.1208E-4,0
STARLINK-32588,2024-202X,2026-07-08T12:25:52.275360,15.27587056,.00003373,42.9977,275.8859,220.6805,139.4021,0,U,61866,999,9381,.69173715E-4,.1643E-4,0
