STARLINK-32438          
1 61722U 24196R   26189.19108515  .00004430  00000+0  14217-3 0  9994
2 61722  53.1591 261.0762 0001255  64.1738 295.9394 15.34399134 95614
STARLINK-32540          
1 61723U 24196S   26189.49073650  .00004707  00000+0  15028-3 0  9997
2 61723  53.1583 223.3330 0002533  96.4046 263.7245 15.34417323 96168
STARLINK-32528          
1 61724U 24196T   26189.49572590 -.00003605  00000+0 -95624-4 0  9994
2 61724  53.1595 259.4288 0001024 100.8886 259.2232 15.34397860 94460
STARLINK-32573          
1 61725U 24196U   26189.47056368  .00000369  00000+0  22050-4 0  9998
2 61725  53.1594 259.9734 0001360  88.0680 272.0478 15.34398006 95653
STARLINK-32478          
1 61726U 24196V   26189.48318975  .00000149  00000+0  15535-4 0  9991
2 61726  53.1570 260.0484 0000707  65.1091 294.9985 15.34405059 95652
STARLINK-32511          
1 61727U 24196W   26188.26446360  .00023166  00000+0  69406-3 0  9996
2 61727  53.1589 265.2459 0001457  65.9827 294.1328 15.34426534 95474
STARLINK-32475          
1 61728U 24196X   26189.18898091  .00001808  00000+0  64610-4 0  9993
2 61728  53.1584 261.0566 0001088  89.7969 270.3158 15.34408046 95615
STARLINK-32442          
1 61729U 24196Y   26188.20564206  .00013507  00000+0  41015-3 0  9996
2 61729  53.1579 265.5848 0001858 104.1133 256.0077 15.34402413 95468
STARLINK-32362          
1 61845U 24202A   26189.49871535  .00000815  00000+0  39146-4 0  9992
2 61845  43.0026 264.4948 0002207 277.0807  82.9794 15.27579995 94528
STARLINK-32472          
1 61846U 24202B   26189.21162022 -.00000764  00000+0 -18219-4 0  9990
2 61846  43.0092 266.6520 0002365 293.2783  66.7819 15.27578948 93883
STARLINK-32352          
1 61847U 24202C   26189.49358816 -.00000222  00000+0  14715-5 0  9995
2 61847  43.0021 264.4565 0001598 279.4293  80.6377 15.27571188 93940
STARLINK-32427          
1 61848U 24202D   26189.24745211 -.00001725  00000+0 -53215-4 0  9995
2 61848  43.0016 266.0491 0000509 225.3224 134.7586 15.27565303 93895
STARLINK-32346          
1 61849U 24202E   26189.25123697 -.00002307  00000+0 -73740-4 0  9997
2 61849  42.9747 266.0435 0010835 142.7082 217.4523 15.27713287 93896
STARLINK-32330          
1 61850U 24202F   26189.73197355 -.00000247  00000+0  53174-6 0  9995
2 61850  42.9993 274.0486 0000453 224.5530 135.5285 15.27581773 93852
STARLINK-32379          
1 61851U 24202G   26189.68587755  .00000335  00000+0  21674-4 0  9992
2 61851  43.0008 263.3181 0001326 261.0789  98.9913 15.27592762 93969
STARLINK-32433          
1 61852U 24202H   26189.53966028 -.00000052  00000+0  76106-5 0  9999
2 61852  43.0010 275.1888 0000446 189.2413 170.8430 15.27581077 93821
STARLINK-32394          
1 61853U 24202J   26189.54223736  .00002118  00000+0  86460-4 0  9990
2 61853  43.0028 275.2068 0000882 234.3668 125.7102 15.27581008 93818
STARLINK-32486          
1 61854U 24202K   26189.54603099  .00015791  00000+0  58151-3 0  9991
2 61854  42.9973 275.2280 0001153 167.1474 192.9408 15.27615136 93828
STARLINK-32391          
1 61855U 24202L   26189.54993516 -.00001425  00000+0 -42241-4 0  9993
2 61855  43.0004 275.2610 0001318 243.4865 116.5852 15.27591616 93818
STARLINK-32483          
1 61856U 24202M   26189.29226557  .00003896  00000+0  15115-3 0  9991
2 61856  43.0084 276.7737 0000943 232.3087 127.7680 15.27550263 93781
STARLINK-32451          
1 61857U 24202N   26189.69228994  .00000987  00000+0  45401-4 0  9993
2 61857  43.0072 274.6206 0002872 305.3776  54.6808 15.27582471 93849
STARLINK-32556          
1 61858U 24202P   26189.55765093  .00001858  00000+0  77025-4 0  9990
2 61858  42.9974 275.3142 0001885 166.8307 193.2594 15.27582144 93826
STARLINK-32466          
1 61859U 24202Q   26189.30253428  .00000797  00000+0  38490-4 0  9992
2 61859  43.0046 276.8494 0002046 285.4209  74.6416 15.27581719 93781
STARLINK-32316          
1 61860U 24202R   26189.54786024  .00000128  00000+0  14154-4 0  9992
2 61860  43.0012 271.7823 0000879 256.8714 103.2039 15.27590492 93857
STARLINK-32415          
1 61861U 24202S   26189.50640411  .00001948  00000+0  80274-4 0  9995
2 61861  43.0017 275.7966 0001556 263.0806  96.9869 15.27590049 93802
STARLINK-32393          
1 61862U 24202T   26189.30638820 -.00002958  00000+0 -97908-4 0  9991
2 61862  43.0021 276.8753 0001588 250.4214 109.6466 15.27607842 93784
STARLINK-32324          
1 61863U 24202U   26189.51412966  .00001017  00000+0  46485-4 0  9993
2 61863  42.9993 275.8541 0001670 260.0273 100.0390 15.27587599 93809
STARLINK-32318          
1 61864U 24202V   26189.71669831 -.00001208  00000+0 -34395-4 0  9992
2 61864  43.0001 274.7957 0001793 274.9733  85.0914 15.27569108 93846
STARLINK-32401          
1 61865U 24202W   26189.52438954  .00001208  00000+0  53393-4 0  9999
2 61865  42.9986 275.9273 0001475 265.9749  94.0934 15.27584598 93814
STARLINK-32588          
1 61866U 24202X   26189.51796615  .00001643  00000+0  69174-4 0  9997
2 61866  42.9977 275.8859 0000337 220.6805 139.4021 15.27587056 93814
